GOES 18                 
1 51850U 22021A   26063.12983422  .00000084  00000+0  00000+0 0  9994
2 51850   0.0295  75.6636 0000638 321.8586  34.0840  1.00271909  5531
GOES 19                 
1 60133U 24119A   26063.16850294 -.00000261  00000+0  00000+0 0  9990
2 60133   0.0170 327.1044 0000995  52.9626 127.3116  1.00272004  5919
